0 FENGYUN 1C DEB
1 31508U 99025BWX 13283.50496170  .00003058  00000-0  13992-2 0  6406
2 31508 098.9005 291.4643 0063444 059.5804 093.3280 14.21107100333866
0 FENGYUN 1C DEB
1 31508U 99025BWX 13285.82244332  .00002784  00000-0  12757-2 0  6418
2 31508 098.9006 293.7996 0063324 052.9758 069.5284 14.21118216334191
0 FENGYUN 1C DEB
1 31508U 99025BWX 13288.50362304  .00004176  00000-0  19026-2 0  6420
2 31508 098.8996 296.5014 0063171 045.3312 106.5351 14.21136235334572
0 FENGYUN 1C DEB
1 31508U 99025BWX 13290.82122949  .00003567  00000-0  16277-2 0  6436
2 31508 098.8996 298.8361 0062981 038.6965 083.6771 14.21151768334905
0 FENGYUN 1C DEB
1 31508U 99025BWX 13292.86258223  .00003990  00000-0  18182-2 0  6445
2 31508 098.8992 300.8929 0062856 032.9348 087.4969 14.21163376335199
0 FENGYUN 1C DEB
1 31508U 99025BWX 13295.82046416  .00004363  00000-0  19857-2 0  6459
2 31508 098.8997 303.8724 0062748 024.4786 100.6715 14.21184880335619
